KUIPER-00044            
1 64505U 25134F   25215.77784053  .00011109  00000+0  59366-3 0  9994
2 64505  51.8719 133.8589 0011452 267.6622  92.3044 15.15504145  7082
KUIPER-00046            
1 64506U 25134G   25215.91668981 -.00044828  00000+0 -20540-2 0  9999
2 64506  51.8715 132.1656 0009150 276.3460 281.4721 15.19915831  7136
KUIPER-00047            
1 64507U 25134H   25215.03707078  .00011416  00000+0  34741-3 0  9998
2 64507  51.8629 135.6696 0009848 272.6575  87.3283 15.34439170  7470
KUIPER-00048            
1 64508U 25134J   25215.50529384  .00034173  00000+0  95176-3 0  9997
2 64508  51.8760 132.8651 0002776 244.3493 115.7207 15.36479058  7096
KUIPER-00049            
1 64509U 25134K   25215.78992969  .00028209  00000+0  80876-3 0  9995
2 64509  51.8698 131.7545 0006434 252.9149 107.1133 15.35656754  7570
KUIPER-00050            
1 64510U 25134L   25215.47015316  .00023843  00000+0  69598-3 0  9992
2 64510  51.8706 133.3614 0007014 248.1412 111.8828 15.35183771  7085
KUIPER-00051            
1 64511U 25134M   25215.78304726  .00020310  00000+0  58384-3 0  9990
2 64511  51.8726 131.7162 0005191 244.8285 115.2163 15.35776707  7518
KUIPER-00052            
1 64512U 25134N   25215.91668981 -.00012808  00000+0 -21722-3 0  9993
2 64512  51.8771 130.2236 0003800 280.6245 157.4559 15.49945840  7163
