<?xml version="1.0" encoding="UTF-8"?>
<ndm xmlns:xsi="http://www.w3.org/2001/XMLSchema-instance" xsi:noNamespaceSchemaLocation="https://sanaregistry.org/r/ndmxml_unqualified/ndmxml-2.0.0-master-2.0.xsd">
<omm id="CCSDS_OMM_VERS" version="2.0">
<header><CREATION_DATE/><ORIGINATOR/></header><body><segment><metadata><OBJECT_NAME>KUIPER-00044</OBJECT_NAME><OBJECT_ID>2025-134F</OBJECT_ID><CENTER_NAME>EARTH</CENTER_NAME><REF_FRAME>TEME</REF_FRAME><TIME_SYSTEM>UTC</TIME_SYSTEM><MEAN_ELEMENT_THEORY>SGP4</MEAN_ELEMENT_THEORY></metadata><data><meanElements><EPOCH>2025-08-03T18:40:05.421792</EPOCH><MEAN_MOTION>15.15504145</MEAN_MOTION><ECCENTRICITY>.0011452</ECCENTRICITY><INCLINATION>51.8719</INCLINATION><RA_OF_ASC_NODE>133.8589</RA_OF_ASC_NODE><ARG_OF_PERICENTER>267.6622</ARG_OF_PERICENTER><MEAN_ANOMALY>92.3044</MEAN_ANOMALY></meanElements><tleParameters><EPHEMERIS_TYPE>0</EPHEMERIS_TYPE><CLASSIFICATION_TYPE>U</CLASSIFICATION_TYPE><NORAD_CAT_ID>64505</NORAD_CAT_ID><ELEMENT_SET_NO>999</ELEMENT_SET_NO><REV_AT_EPOCH>708</REV_AT_EPOCH><BSTAR>.59366E-3</BSTAR><MEAN_MOTION_DOT>.11109E-3</MEAN_MOTION_DOT><MEAN_MOTION_DDOT>0</MEAN_MOTION_DDOT></tleParameters></data></segment></body></omm>
<omm id="CCSDS_OMM_VERS" version="2.0">
<header><CREATION_DATE/><ORIGINATOR/></header><body><segment><metadata><OBJECT_NAME>KUIPER-00046</OBJECT_NAME><OBJECT_ID>2025-134G</OBJECT_ID><CENTER_NAME>EARTH</CENTER_NAME><REF_FRAME>TEME</REF_FRAME><TIME_SYSTEM>UTC</TIME_SYSTEM><MEAN_ELEMENT_THEORY>SGP4</MEAN_ELEMENT_THEORY></metadata><data><meanElements><EPOCH>2025-08-03T22:00:01.999584</EPOCH><MEAN_MOTION>15.19915831</MEAN_MOTION><ECCENTRICITY>.000915</ECCENTRICITY><INCLINATION>51.8715</INCLINATION><RA_OF_ASC_NODE>132.1656</RA_OF_ASC_NODE><ARG_OF_PERICENTER>276.3460</ARG_OF_PERICENTER><MEAN_ANOMALY>281.4721</MEAN_ANOMALY></meanElements><tleParameters><EPHEMERIS_TYPE>0</EPHEMERIS_TYPE><CLASSIFICATION_TYPE>U</CLASSIFICATION_TYPE><NORAD_CAT_ID>64506</NORAD_CAT_ID><ELEMENT_SET_NO>999</ELEMENT_SET_NO><REV_AT_EPOCH>713</REV_AT_EPOCH><BSTAR>-.2054E-2</BSTAR><MEAN_MOTION_DOT>-.44828E-3</MEAN_MOTION_DOT><MEAN_MOTION_DDOT>0</MEAN_MOTION_DDOT></tleParameters></data></segment></body></omm>
<omm id="CCSDS_OMM_VERS" version="2.0">
<header><CREATION_DATE/><ORIGINATOR/></header><body><segment><metadata><OBJECT_NAME>KUIPER-00047</OBJECT_NAME><OBJECT_ID>2025-134H</OBJECT_ID><CENTER_NAME>EARTH</CENTER_NAME><REF_FRAME>TEME</REF_FRAME><TIME_SYSTEM>UTC</TIME_SYSTEM><MEAN_ELEMENT_THEORY>SGP4</MEAN_ELEMENT_THEORY></metadata><data><meanElements><EPOCH>2025-08-03T00:53:22.915392</EPOCH><MEAN_MOTION>15.34439170</MEAN_MOTION><ECCENTRICITY>.0009848</ECCENTRICITY><INCLINATION>51.8629</INCLINATION><RA_OF_ASC_NODE>135.6696</RA_OF_ASC_NODE><ARG_OF_PERICENTER>272.6575</ARG_OF_PERICENTER><MEAN_ANOMALY>87.3283</MEAN_ANOMALY></meanElements><tleParameters><EPHEMERIS_TYPE>0</EPHEMERIS_TYPE><CLASSIFICATION_TYPE>U</CLASSIFICATION_TYPE><NORAD_CAT_ID>64507</NORAD_CAT_ID><ELEMENT_SET_NO>999</ELEMENT_SET_NO><REV_AT_EPOCH>747</REV_AT_EPOCH><BSTAR>.34741E-3</BSTAR><MEAN_MOTION_DOT>.11416E-3</MEAN_MOTION_DOT><MEAN_MOTION_DDOT>0</MEAN_MOTION_DDOT></tleParameters></data></segment></body></omm>
<omm id="CCSDS_OMM_VERS" version="2.0">
<header><CREATION_DATE/><ORIGINATOR/></header><body><segment><metadata><OBJECT_NAME>KUIPER-00048</OBJECT_NAME><OBJECT_ID>2025-134J</OBJECT_ID><CENTER_NAME>EARTH</CENTER_NAME><REF_FRAME>TEME</REF_FRAME><TIME_SYSTEM>UTC</TIME_SYSTEM><MEAN_ELEMENT_THEORY>SGP4</MEAN_ELEMENT_THEORY></metadata><data><meanElements><EPOCH>2025-08-03T12:07:37.387776</EPOCH><MEAN_MOTION>15.36479058</MEAN_MOTION><ECCENTRICITY>.0002776</ECCENTRICITY><INCLINATION>51.8760</INCLINATION><RA_OF_ASC_NODE>132.8651</RA_OF_ASC_NODE><ARG_OF_PERICENTER>244.3493</ARG_OF_PERICENTER><MEAN_ANOMALY>115.7207</MEAN_ANOMALY></meanElements><tleParameters><EPHEMERIS_TYPE>0</EPHEMERIS_TYPE><CLASSIFICATION_TYPE>U</CLASSIFICATION_TYPE><NORAD_CAT_ID>64508</NORAD_CAT_ID><ELEMENT_SET_NO>999</ELEMENT_SET_NO><REV_AT_EPOCH>709</REV_AT_EPOCH><BSTAR>.95176E-3</BSTAR><MEAN_MOTION_DOT>.34173E-3</MEAN_MOTION_DOT><MEAN_MOTION_DDOT>0</MEAN_MOTION_DDOT></tleParameters></data></segment></body></omm>
<omm id="CCSDS_OMM_VERS" version="2.0">
<header><CREATION_DATE/><ORIGINATOR/></header><body><segment><metadata><OBJECT_NAME>KUIPER-00049</OBJECT_NAME><OBJECT_ID>2025-134K</OBJECT_ID><CENTER_NAME>EARTH</CENTER_NAME><REF_FRAME>TEME</REF_FRAME><TIME_SYSTEM>UTC</TIME_SYSTEM><MEAN_ELEMENT_THEORY>SGP4</MEAN_ELEMENT_THEORY></metadata><data><meanElements><EPOCH>2025-08-03T18:57:29.925216</EPOCH><MEAN_MOTION>15.35656754</MEAN_MOTION><ECCENTRICITY>.0006434</ECCENTRICITY><INCLINATION>51.8698</INCLINATION><RA_OF_ASC_NODE>131.7545</RA_OF_ASC_NODE><ARG_OF_PERICENTER>252.9149</ARG_OF_PERICENTER><MEAN_ANOMALY>107.1133</MEAN_ANOMALY></meanElements><tleParameters><EPHEMERIS_TYPE>0</EPHEMERIS_TYPE><CLASSIFICATION_TYPE>U</CLASSIFICATION_TYPE><NORAD_CAT_ID>64509</NORAD_CAT_ID><ELEMENT_SET_NO>999</ELEMENT_SET_NO><REV_AT_EPOCH>757</REV_AT_EPOCH><BSTAR>.80876E-3</BSTAR><MEAN_MOTION_DOT>.28209E-3</MEAN_MOTION_DOT><MEAN_MOTION_DDOT>0</MEAN_MOTION_DDOT></tleParameters></data></segment></body></omm>
<omm id="CCSDS_OMM_VERS" version="2.0">
<header><CREATION_DATE/><ORIGINATOR/></header><body><segment><metadata><OBJECT_NAME>KUIPER-00050</OBJECT_NAME><OBJECT_ID>2025-134L</OBJECT_ID><CENTER_NAME>EARTH</CENTER_NAME><REF_FRAME>TEME</REF_FRAME><TIME_SYSTEM>UTC</TIME_SYSTEM><MEAN_ELEMENT_THEORY>SGP4</MEAN_ELEMENT_THEORY></metadata><data><meanElements><EPOCH>2025-08-03T11:17:01.233024</EPOCH><MEAN_MOTION>15.35183771</MEAN_MOTION><ECCENTRICITY>.0007014</ECCENTRICITY><INCLINATION>51.8706</INCLINATION><RA_OF_ASC_NODE>133.3614</RA_OF_ASC_NODE><ARG_OF_PERICENTER>248.1412</ARG_OF_PERICENTER><MEAN_ANOMALY>111.8828</MEAN_ANOMALY></meanElements><tleParameters><EPHEMERIS_TYPE>0</EPHEMERIS_TYPE><CLASSIFICATION_TYPE>U</CLASSIFICATION_TYPE><NORAD_CAT_ID>64510</NORAD_CAT_ID><ELEMENT_SET_NO>999</ELEMENT_SET_NO><REV_AT_EPOCH>708</REV_AT_EPOCH><BSTAR>.69598E-3</BSTAR><MEAN_MOTION_DOT>.23843E-3</MEAN_MOTION_DOT><MEAN_MOTION_DDOT>0</MEAN_MOTION_DDOT></tleParameters></data></segment></body></omm>
<omm id="CCSDS_OMM_VERS" version="2.0">
<header><CREATION_DATE/><ORIGINATOR/></header><body><segment><metadata><OBJECT_NAME>KUIPER-00051</OBJECT_NAME><OBJECT_ID>2025-134M</OBJECT_ID><CENTER_NAME>EARTH</CENTER_NAME><REF_FRAME>TEME</REF_FRAME><TIME_SYSTEM>UTC</TIME_SYSTEM><MEAN_ELEMENT_THEORY>SGP4</MEAN_ELEMENT_THEORY></metadata><data><meanElements><EPOCH>2025-08-03T18:47:35.283264</EPOCH><MEAN_MOTION>15.35776707</MEAN_MOTION><ECCENTRICITY>.0005191</ECCENTRICITY><INCLINATION>51.8726</INCLINATION><RA_OF_ASC_NODE>131.7162</RA_OF_ASC_NODE><ARG_OF_PERICENTER>244.8285</ARG_OF_PERICENTER><MEAN_ANOMALY>115.2163</MEAN_ANOMALY></meanElements><tleParameters><EPHEMERIS_TYPE>0</EPHEMERIS_TYPE><CLASSIFICATION_TYPE>U</CLASSIFICATION_TYPE><NORAD_CAT_ID>64511</NORAD_CAT_ID><ELEMENT_SET_NO>999</ELEMENT_SET_NO><REV_AT_EPOCH>751</REV_AT_EPOCH><BSTAR>.58384E-3</BSTAR><MEAN_MOTION_DOT>.2031E-3</MEAN_MOTION_DOT><MEAN_MOTION_DDOT>0</MEAN_MOTION_DDOT></tleParameters></data></segment></body></omm>
<omm id="CCSDS_OMM_VERS" version="2.0">
<header><CREATION_DATE/><ORIGINATOR/></header><body><segment><metadata><OBJECT_NAME>KUIPER-00052</OBJECT_NAME><OBJECT_ID>2025-134N</OBJECT_ID><CENTER_NAME>EARTH</CENTER_NAME><REF_FRAME>TEME</REF_FRAME><TIME_SYSTEM>UTC</TIME_SYSTEM><MEAN_ELEMENT_THEORY>SGP4</MEAN_ELEMENT_THEORY></metadata><data><meanElements><EPOCH>2025-08-03T22:00:01.999584</EPOCH><MEAN_MOTION>15.49945840</MEAN_MOTION><ECCENTRICITY>.00038</ECCENTRICITY><INCLINATION>51.8771</INCLINATION><RA_OF_ASC_NODE>130.2236</RA_OF_ASC_NODE><ARG_OF_PERICENTER>280.6245</ARG_OF_PERICENTER><MEAN_ANOMALY>157.4559</MEAN_ANOMALY></meanElements><tleParameters><EPHEMERIS_TYPE>0</EPHEMERIS_TYPE><CLASSIFICATION_TYPE>U</CLASSIFICATION_TYPE><NORAD_CAT_ID>64512</NORAD_CAT_ID><ELEMENT_SET_NO>999</ELEMENT_SET_NO><REV_AT_EPOCH>716</REV_AT_EPOCH><BSTAR>-.21722E-3</BSTAR><MEAN_MOTION_DOT>-.12808E-3</MEAN_MOTION_DOT><MEAN_MOTION_DDOT>0</MEAN_MOTION_DDOT></tleParameters></data></segment></body></omm>

</ndm>
